CSTP-2.1
1 61777U 24199AU  26068.94421276  .00020549  00000-0  48322-3 0  9992
2 61777  97.3147 301.0833 0013813 281.8371  78.1327 15.41914594118871
INNOSAT3 (RS92S0)
1 64894U 25155U   26068.91985068  .00042146  00000-0  11717-2 0  9993
2 64894  97.4426  38.6151 0006574 146.6470 213.5189 15.36713341 65687
